{
    "links": {
        "self": "http://www.neowsapp.com/rest/v1/neo/3599393?api_key=iIulBulltgU6a56xZRHN4H3l9WmuAYTsLGpBGhQ2"
    },
    "id": "3599393",
    "neo_reference_id": "3599393",
    "name": "(2012 DP)",
    "designation": "2012 DP",
    "nasa_jpl_url": "http://ssd.jpl.nasa.gov/sbdb.cgi?sstr=3599393",
    "absolute_magnitude_h": 25.4,
    "estimated_diameter": {
        "kilometers": {
            "estimated_diameter_min": 0.022108281,
            "estimated_diameter_max": 0.0494356193
        },
        "meters": {
            "estimated_diameter_min": 22.1082810359,
            "estimated_diameter_max": 49.435619262
        },
        "miles": {
            "estimated_diameter_min": 0.0137374447,
            "estimated_diameter_max": 0.0307178602
        },
        "feet": {
            "estimated_diameter_min": 72.5337327539,
            "estimated_diameter_max": 162.1903570994
        }
    },
    "is_potentially_hazardous_asteroid": false,
    "close_approach_data": [
        {
            "close_approach_date": "2012-01-27",
            "close_approach_date_full": "2012-Jan-27 20:11",
            "epoch_date_close_approach": 1327695060000,
            "relative_velocity": {
                "kilometers_per_second": "4.4949371914",
                "kilometers_per_hour": "16181.7738889501",
                "miles_per_hour": "10054.7250033868"
            },
            "miss_distance": {
                "astronomical": "0.1244820743",
                "lunar": "48.4235269027",
                "kilometers": "18622253.168461741",
                "miles": "11571331.5491083858"
            },
            "orbiting_body": "Earth"
        }
    ],
    "orbital_data": {
        "orbit_id": "6",
        "orbit_determination_date": "2017-04-06 08:50:56",
        "first_observation_date": "2012-02-16",
        "last_observation_date": "2012-02-26",
        "data_arc_in_days": 10,
        "observations_used": 12,
        "orbit_uncertainty": "9",
        "minimum_orbit_intersection": ".121287",
        "jupiter_tisserand_invariant": "3.673",
        "epoch_osculation": "2455974.5",
        "eccentricity": ".4571028883062315",
        "semi_major_axis": "2.02844387883839",
        "inclination": "4.036492941356559",
        "ascending_node_longitude": "334.2260033768059",
        "orbital_period": "1055.219775748342",
        "perihelion_distance": "1.101236323054266",
        "perihelion_argument": "150.7939136005465",
        "aphelion_distance": "2.955651434622514",
        "perihelion_time": "2455950.874998949760",
        "mean_anomaly": "8.059932701749089",
        "mean_motion": ".3411611573946241",
        "equinox": "J2000",
        "orbit_class": {
            "orbit_class_type": "AMO",
            "orbit_class_description": "Near-Earth asteroid orbits similar to that of 1221 Amor",
            "orbit_class_range": "1.017 AU < q (perihelion) < 1.3 AU"
        }
    },
    "is_sentry_object": false
}